[{"OBJECT_NAME":"ONEWEB-0358","OBJECT_ID":"2021-090F","EPOCH":"2026-03-07T03:15:51.617376","MEAN_MOTION":13.20772391,"ECCENTRICITY":0.0001545,"INCLINATION":87.9175,"RA_OF_ASC_NODE":294.8129,"ARG_OF_PERICENTER":79.1058,"MEAN_ANOMALY":281.0249,"EPHEMERIS_TYPE":0,"CLASSIFICATION_TYPE":"U","NORAD_CAT_ID":49284,"ELEMENT_SET_NO":999,"REV_AT_EPOCH":21708,"BSTAR":0.00011648,"MEAN_MOTION_DOT":6.0e-7,"MEAN_MOTION_DDOT":0},{"OBJECT_NAME":"ONEWEB-0359","OBJECT_ID":"2021-090G","EPOCH":"2026-03-07T03:11:18.951936","MEAN_MOTION":13.20770795,"ECCENTRICITY":0.0001753,"INCLINATION":87.9179,"RA_OF_ASC_NODE":294.811,"ARG_OF_PERICENTER":75.1275,"MEAN_ANOMALY":285.0052,"EPHEMERIS_TYPE":0,"CLASSIFICATION_TYPE":"U","NORAD_CAT_ID":49285,"ELEMENT_SET_NO":999,"REV_AT_EPOCH":21706,"BSTAR":0.0003557,"MEAN_MOTION_DOT":1.58e-6,"MEAN_MOTION_DDOT":0},{"OBJECT_NAME":"ONEWEB-0360","OBJECT_ID":"2021-090H","EPOCH":"2026-03-07T02:57:39.628512","MEAN_MOTION":13.20771006,"ECCENTRICITY":0.0001665,"INCLINATION":87.9174,"RA_OF_ASC_NODE":294.8195,"ARG_OF_PERICENTER":80.1303,"MEAN_ANOMALY":280.0019,"EPHEMERIS_TYPE":0,"CLASSIFICATION_TYPE":"U","NORAD_CAT_ID":49286,"ELEMENT_SET_NO":999,"REV_AT_EPOCH":21637,"BSTAR":-0.00029911,"MEAN_MOTION_DOT":-1.09e-6,"MEAN_MOTION_DDOT":0},{"OBJECT_NAME":"ONEWEB-0361","OBJECT_ID":"2021-090J","EPOCH":"2026-03-07T04:19:28.864416","MEAN_MOTION":13.20773079,"ECCENTRICITY":0.0001382,"INCLINATION":87.9176,"RA_OF_ASC_NODE":294.8052,"ARG_OF_PERICENTER":79.3675,"MEAN_ANOMALY":280.7614,"EPHEMERIS_TYPE":0,"CLASSIFICATION_TYPE":"U","NORAD_CAT_ID":49287,"ELEMENT_SET_NO":999,"REV_AT_EPOCH":21683,"BSTAR":0.00014352,"MEAN_MOTION_DOT":7.1e-7,"MEAN_MOTION_DDOT":0},{"OBJECT_NAME":"ONEWEB-0362","OBJECT_ID":"2021-090K","EPOCH":"2026-03-07T03:04:03.991872","MEAN_MOTION":13.19725417,"ECCENTRICITY":0.0001931,"INCLINATION":87.9229,"RA_OF_ASC_NODE":325.3131,"ARG_OF_PERICENTER":82.3647,"MEAN_ANOMALY":277.7705,"EPHEMERIS_TYPE":0,"CLASSIFICATION_TYPE":"U","NORAD_CAT_ID":49288,"ELEMENT_SET_NO":999,"REV_AT_EPOCH":21345,"BSTAR":-7.9735e-5,"MEAN_MOTION_DOT":-1.9e-7,"MEAN_MOTION_DDOT":0},{"OBJECT_NAME":"ONEWEB-0363","OBJECT_ID":"2021-090L","EPOCH":"2026-03-07T01:04:03.088416","MEAN_MOTION":13.20772201,"ECCENTRICITY":0.0001391,"INCLINATION":87.9179,"RA_OF_ASC_NODE":294.8325,"ARG_OF_PERICENTER":72.1773,"MEAN_ANOMALY":287.9512,"EPHEMERIS_TYPE":0,"CLASSIFICATION_TYPE":"U","NORAD_CAT_ID":49289,"ELEMENT_SET_NO":999,"REV_AT_EPOCH":21682,"BSTAR":-0.0003523,"MEAN_MOTION_DOT":-1.3e-6,"MEAN_MOTION_DDOT":0},{"OBJECT_NAME":"ONEWEB-0364","OBJECT_ID":"2021-090M","EPOCH":"2026-03-07T01:58:35.104800","MEAN_MOTION":13.20773124,"ECCENTRICITY":0.0001502,"INCLINATION":87.9162,"RA_OF_ASC_NODE":294.841,"ARG_OF_PERICENTER":83.1214,"MEAN_ANOMALY":277.0091,"EPHEMERIS_TYPE":0,"CLASSIFICATION_TYPE":"U","NORAD_CAT_ID":49290,"ELEMENT_SET_NO":999,"REV_AT_EPOCH":21796,"BSTAR":2.2123e-5,"MEAN_MOTION_DOT":2.2e-7,"MEAN_MOTION_DDOT":0},{"OBJECT_NAME":"ONEWEB-0365","OBJECT_ID":"2021-090N","EPOCH":"2026-03-07T03:17:42.384768","MEAN_MOTION":13.19724013,"ECCENTRICITY":0.0001712,"INCLINATION":87.9245,"RA_OF_ASC_NODE":325.2898,"ARG_OF_PERICENTER":82.3312,"MEAN_ANOMALY":277.8015,"EPHEMERIS_TYPE":0,"CLASSIFICATION_TYPE":"U","NORAD_CAT_ID":49291,"ELEMENT_SET_NO":999,"REV_AT_EPOCH":21296,"BSTAR":0.00020362,"MEAN_MOTION_DOT":9.4e-7,"MEAN_MOTION_DDOT":0},{"OBJECT_NAME":"ONEWEB-0366","OBJECT_ID":"2021-090P","EPOCH":"2026-03-07T03:12:21.676608","MEAN_MOTION":13.14502295,"ECCENTRICITY":0.0001588,"INCLINATION":87.8982,"RA_OF_ASC_NODE":310.076,"ARG_OF_PERICENTER":80.1974,"MEAN_ANOMALY":279.9335,"EPHEMERIS_TYPE":0,"CLASSIFICATION_TYPE":"U","NORAD_CAT_ID":49292,"ELEMENT_SET_NO":999,"REV_AT_EPOCH":21415,"BSTAR":0.00049254,"MEAN_MOTION_DOT":1.95e-6,"MEAN_MOTION_DDOT":0},{"OBJECT_NAME":"ONEWEB-0367","OBJECT_ID":"2021-090Q","EPOCH":"2026-03-07T02:50:50.658432","MEAN_MOTION":13.20773484,"ECCENTRICITY":0.0001793,"INCLINATION":87.9178,"RA_OF_ASC_NODE":294.8184,"ARG_OF_PERICENTER":87.2082,"MEAN_ANOMALY":272.9256,"EPHEMERIS_TYPE":0,"CLASSIFICATION_TYPE":"U","NORAD_CAT_ID":49293,"ELEMENT_SET_NO":999,"REV_AT_EPOCH":21635,"BSTAR":0.00027455,"MEAN_MOTION_DOT":1.25e-6,"MEAN_MOTION_DDOT":0},{"OBJECT_NAME":"ONEWEB-0368","OBJECT_ID":"2021-090R","EPOCH":"2026-03-07T04:01:17.810400","MEAN_MOTION":13.207733,"ECCENTRICITY":9.77e-5,"INCLINATION":87.9165,"RA_OF_ASC_NODE":294.8307,"ARG_OF_PERICENTER":108.2465,"MEAN_ANOMALY":251.8774,"EPHEMERIS_TYPE":0,"CLASSIFICATION_TYPE":"U","NORAD_CAT_ID":49294,"ELEMENT_SET_NO":999,"REV_AT_EPOCH":21751,"BSTAR":-0.00024005,"MEAN_MOTION_DOT":-8.5e-7,"MEAN_MOTION_DDOT":0},{"OBJECT_NAME":"ONEWEB-0369","OBJECT_ID":"2021-090S","EPOCH":"2026-03-07T03:10:53.352480","MEAN_MOTION":13.19726091,"ECCENTRICITY":0.0001616,"INCLINATION":87.9234,"RA_OF_ASC_NODE":325.3089,"ARG_OF_PERICENTER":81.1983,"MEAN_ANOMALY":278.9333,"EPHEMERIS_TYPE":0,"CLASSIFICATION_TYPE":"U","NORAD_CAT_ID":49295,"ELEMENT_SET_NO":999,"REV_AT_EPOCH":21295,"BSTAR":0.00017533,"MEAN_MOTION_DOT":8.3e-7,"MEAN_MOTION_DDOT":0},{"OBJECT_NAME":"ONEWEB-0370","OBJECT_ID":"2021-090T","EPOCH":"2026-03-07T03:04:29.853984","MEAN_MOTION":13.20772682,"ECCENTRICITY":0.0001867,"INCLINATION":87.9176,"RA_OF_ASC_NODE":294.8174,"ARG_OF_PERICENTER":82.4994,"MEAN_ANOMALY":277.6351,"EPHEMERIS_TYPE":0,"CLASSIFICATION_TYPE":"U","NORAD_CAT_ID":49296,"ELEMENT_SET_NO":999,"REV_AT_EPOCH":21639,"BSTAR":0.00026629,"MEAN_MOTION_DOT":1.21e-6,"MEAN_MOTION_DDOT":0},{"OBJECT_NAME":"ONEWEB-0371","OBJECT_ID":"2021-090U","EPOCH":"2026-03-07T03:22:15.763872","MEAN_MOTION":13.19725719,"ECCENTRICITY":0.0001766,"INCLINATION":87.9235,"RA_OF_ASC_NODE":325.2964,"ARG_OF_PERICENTER":81.6176,"MEAN_ANOMALY":278.5156,"EPHEMERIS_TYPE":0,"CLASSIFICATION_TYPE":"U","NORAD_CAT_ID":49297,"ELEMENT_SET_NO":999,"REV_AT_EPOCH":21299,"BSTAR":0.00018044,"MEAN_MOTION_DOT":8.5e-7,"MEAN_MOTION_DDOT":0},{"OBJECT_NAME":"ONEWEB-0372","OBJECT_ID":"2021-090V","EPOCH":"2026-03-07T02:48:23.832000","MEAN_MOTION":13.20772357,"ECCENTRICITY":0.0001623,"INCLINATION":87.9175,"RA_OF_ASC_NODE":294.8202,"ARG_OF_PERICENTER":87.9806,"MEAN_ANOMALY":272.1513,"EPHEMERIS_TYPE":0,"CLASSIFICATION_TYPE":"U","NORAD_CAT_ID":49298,"ELEMENT_SET_NO":999,"REV_AT_EPOCH":21636,"BSTAR":0.00024868,"MEAN_MOTION_DOT":1.14e-6,"MEAN_MOTION_DDOT":0},{"OBJECT_NAME":"ONEWEB-0373","OBJECT_ID":"2021-090W","EPOCH":"2026-03-07T03:27:12.773376","MEAN_MOTION":13.20770466,"ECCENTRICITY":0.0001601,"INCLINATION":87.9164,"RA_OF_ASC_NODE":294.8207,"ARG_OF_PERICENTER":80.2903,"MEAN_ANOMALY":279.8411,"EPHEMERIS_TYPE":0,"CLASSIFICATION_TYPE":"U","NORAD_CAT_ID":49299,"ELEMENT_SET_NO":999,"REV_AT_EPOCH":21755,"BSTAR":0.000339,"MEAN_MOTION_DOT":1.51e-6,"MEAN_MOTION_DDOT":0},{"OBJECT_NAME":"ONEWEB-0374","OBJECT_ID":"2021-090X","EPOCH":"2026-03-07T02:54:05.405760","MEAN_MOTION":13.14502108,"ECCENTRICITY":0.0001107,"INCLINATION":87.8989,"RA_OF_ASC_NODE":310.0622,"ARG_OF_PERICENTER":69.8288,"MEAN_ANOMALY":290.296,"EPHEMERIS_TYPE":0,"CLASSIFICATION_TYPE":"U","NORAD_CAT_ID":49300,"ELEMENT_SET_NO":999,"REV_AT_EPOCH":21415,"BSTAR":0.00058615,"MEAN_MOTION_DOT":2.3e-6,"MEAN_MOTION_DDOT":0}]
