ONEWEB-0358             
1 49284U 21090F   26066.13601409  .00000060  00000+0  11648-3 0  9991
2 49284  87.9175 294.8129 0001545  79.1058 281.0249 13.20772391217085
ONEWEB-0359             
1 49285U 21090G   26066.13285824  .00000158  00000+0  35570-3 0  9999
2 49285  87.9179 294.8110 0001753  75.1275 285.0052 13.20770795217068
ONEWEB-0360             
1 49286U 21090H   26066.12337533 -.00000109  00000+0 -29911-3 0  9994
2 49286  87.9174 294.8195 0001665  80.1303 280.0019 13.20771006216374
ONEWEB-0361             
1 49287U 21090J   26066.18019519  .00000071  00000+0  14352-3 0  9991
2 49287  87.9176 294.8052 0001382  79.3675 280.7614 13.20773079216838
ONEWEB-0362             
1 49288U 21090K   26066.12782398 -.00000019  00000+0 -79735-4 0  9999
2 49288  87.9229 325.3131 0001931  82.3647 277.7705 13.19725417213452
ONEWEB-0363             
1 49289U 21090L   26066.04448019 -.00000130  00000+0 -35230-3 0  9995
2 49289  87.9179 294.8325 0001391  72.1773 287.9512 13.20772201216827
ONEWEB-0364             
1 49290U 21090M   26066.08235075  .00000022  00000+0  22123-4 0  9993
2 49290  87.9162 294.8410 0001502  83.1214 277.0091 13.20773124217965
ONEWEB-0365             
1 49291U 21090N   26066.13729612  .00000094  00000+0  20362-3 0  9996
2 49291  87.9245 325.2898 0001712  82.3312 277.8015 13.19724013212960
ONEWEB-0366             
1 49292U 21090P   26066.13358422  .00000195  00000+0  49254-3 0  9997
2 49292  87.8982 310.0760 0001588  80.1974 279.9335 13.14502295214151
ONEWEB-0367             
1 49293U 21090Q   26066.11864188  .00000125  00000+0  27455-3 0  9999
2 49293  87.9178 294.8184 0001793  87.2082 272.9256 13.20773484216351
ONEWEB-0368             
1 49294U 21090R   26066.16756725 -.00000085  00000+0 -24005-3 0  9997
2 49294  87.9165 294.8307 0000977 108.2465 251.8774 13.20773300217514
ONEWEB-0369             
1 49295U 21090S   26066.13256195  .00000083  00000+0  17533-3 0  9995
2 49295  87.9234 325.3089 0001616  81.1983 278.9333 13.19726091212951
ONEWEB-0370             
1 49296U 21090T   26066.12812331  .00000121  00000+0  26629-3 0  9994
2 49296  87.9176 294.8174 0001867  82.4994 277.6351 13.20772682216393
ONEWEB-0371             
1 49297U 21090U   26066.14046023  .00000085  00000+0  18044-3 0  9995
2 49297  87.9235 325.2964 0001766  81.6176 278.5156 13.19725719212999
ONEWEB-0372             
1 49298U 21090V   26066.11694250  .00000114  00000+0  24868-3 0  9998
2 49298  87.9175 294.8202 0001623  87.9806 272.1513 13.20772357216364
ONEWEB-0373             
1 49299U 21090W   26066.14389784  .00000151  00000+0  33900-3 0  9993
2 49299  87.9164 294.8207 0001601  80.2903 279.8411 13.20770466217550
ONEWEB-0374             
1 49300U 21090X   26066.12089590  .00000230  00000+0  58615-3 0  9994
2 49300  87.8989 310.0622 0001107  69.8288 290.2960 13.14502108214157
